[{"OBJECT_NAME":"TEVEL2-9","OBJECT_ID":"2025-052AD","EPOCH":"2026-03-09T16:51:18.321696","MEAN_MOTION":15.28633834,"ECCENTRICITY":0.000799,"INCLINATION":97.4057,"RA_OF_ASC_NODE":324.3929,"ARG_OF_PERICENTER":124.2475,"MEAN_ANOMALY":235.9522,"EPHEMERIS_TYPE":0,"CLASSIFICATION_TYPE":"U","NORAD_CAT_ID":63237,"ELEMENT_SET_NO":999,"REV_AT_EPOCH":5481,"BSTAR":0.00067240159,"MEAN_MOTION_DOT":0.00018694,"MEAN_MOTION_DDOT":0},{"OBJECT_NAME":"STARLINK-35570","OBJECT_ID":"2025-236E","EPOCH":"2026-03-09T07:56:43.050048","MEAN_MOTION":15.30200309,"ECCENTRICITY":0.00012741,"INCLINATION":53.1572,"RA_OF_ASC_NODE":105.2583,"ARG_OF_PERICENTER":88.6862,"MEAN_ANOMALY":271.4284,"EPHEMERIS_TYPE":0,"CLASSIFICATION_TYPE":"U","NORAD_CAT_ID":66090,"ELEMENT_SET_NO":999,"REV_AT_EPOCH":2289,"BSTAR":0.00078500439,"MEAN_MOTION_DOT":0.00022963,"MEAN_MOTION_DDOT":0}]
